[{"OBJECT_NAME":"STARLINK-4423","OBJECT_ID":"2022-084W","EPOCH":"2026-03-03T18:04:17.725152","MEAN_MOTION":15.01255805,"ECCENTRICITY":0.0001393,"INCLINATION":97.6022,"RA_OF_ASC_NODE":124.3899,"ARG_OF_PERICENTER":93.8425,"MEAN_ANOMALY":266.2959,"EPHEMERIS_TYPE":0,"CLASSIFICATION_TYPE":"U","NORAD_CAT_ID":53209,"ELEMENT_SET_NO":999,"REV_AT_EPOCH":19842,"BSTAR":6.6209e-5,"MEAN_MOTION_DOT":7.92e-6,"MEAN_MOTION_DDOT":0},{"OBJECT_NAME":"STARLINK-4427","OBJECT_ID":"2022-084X","EPOCH":"2026-03-03T18:11:55.771296","MEAN_MOTION":15.01257189,"ECCENTRICITY":0.0001918,"INCLINATION":97.6022,"RA_OF_ASC_NODE":124.396,"ARG_OF_PERICENTER":92.5516,"MEAN_ANOMALY":267.5927,"EPHEMERIS_TYPE":0,"CLASSIFICATION_TYPE":"U","NORAD_CAT_ID":53210,"ELEMENT_SET_NO":999,"REV_AT_EPOCH":19896,"BSTAR":-3.1045e-5,"MEAN_MOTION_DOT":-4.57e-6,"MEAN_MOTION_DDOT":0},{"OBJECT_NAME":"STARLINK-4416","OBJECT_ID":"2022-084Z","EPOCH":"2026-03-03T17:28:49.835712","MEAN_MOTION":15.05654969,"ECCENTRICITY":6.51e-5,"INCLINATION":97.6035,"RA_OF_ASC_NODE":125.3368,"ARG_OF_PERICENTER":153.2972,"MEAN_ANOMALY":206.8288,"EPHEMERIS_TYPE":0,"CLASSIFICATION_TYPE":"U","NORAD_CAT_ID":53212,"ELEMENT_SET_NO":999,"REV_AT_EPOCH":19847,"BSTAR":-0.00022987,"MEAN_MOTION_DOT":-3.376e-5,"MEAN_MOTION_DDOT":0},{"OBJECT_NAME":"STARLINK-4414","OBJECT_ID":"2022-084AA","EPOCH":"2026-03-03T16:14:35.901024","MEAN_MOTION":15.01260882,"ECCENTRICITY":0.0002615,"INCLINATION":97.6025,"RA_OF_ASC_NODE":124.3125,"ARG_OF_PERICENTER":200.2408,"MEAN_ANOMALY":159.8713,"EPHEMERIS_TYPE":0,"CLASSIFICATION_TYPE":"U","NORAD_CAT_ID":53213,"ELEMENT_SET_NO":999,"REV_AT_EPOCH":19893,"BSTAR":2.3496e-5,"MEAN_MOTION_DOT":2.43e-6,"MEAN_MOTION_DDOT":0},{"OBJECT_NAME":"STARLINK-4353","OBJECT_ID":"2022-084AB","EPOCH":"2026-03-03T18:01:14.823264","MEAN_MOTION":15.01264781,"ECCENTRICITY":0.0001365,"INCLINATION":97.6023,"RA_OF_ASC_NODE":124.3862,"ARG_OF_PERICENTER":91.982,"MEAN_ANOMALY":268.1561,"EPHEMERIS_TYPE":0,"CLASSIFICATION_TYPE":"U","NORAD_CAT_ID":53214,"ELEMENT_SET_NO":999,"REV_AT_EPOCH":19842,"BSTAR":6.1273e-6,"MEAN_MOTION_DOT":2.0e-7,"MEAN_MOTION_DDOT":0},{"OBJECT_NAME":"STARLINK-4335","OBJECT_ID":"2022-084AC","EPOCH":"2026-03-03T17:04:54.223680","MEAN_MOTION":15.05647197,"ECCENTRICITY":5.55e-5,"INCLINATION":97.603,"RA_OF_ASC_NODE":125.3329,"ARG_OF_PERICENTER":142.3994,"MEAN_ANOMALY":217.7272,"EPHEMERIS_TYPE":0,"CLASSIFICATION_TYPE":"U","NORAD_CAT_ID":53215,"ELEMENT_SET_NO":999,"REV_AT_EPOCH":19900,"BSTAR":3.188e-5,"MEAN_MOTION_DOT":3.99e-6,"MEAN_MOTION_DDOT":0},{"OBJECT_NAME":"STARLINK-4376","OBJECT_ID":"2022-084AD","EPOCH":"2026-03-03T17:55:54.704352","MEAN_MOTION":15.01263482,"ECCENTRICITY":9.33e-5,"INCLINATION":97.6027,"RA_OF_ASC_NODE":124.3818,"ARG_OF_PERICENTER":179.8988,"MEAN_ANOMALY":180.2237,"EPHEMERIS_TYPE":0,"CLASSIFICATION_TYPE":"U","NORAD_CAT_ID":53216,"ELEMENT_SET_NO":999,"REV_AT_EPOCH":19842,"BSTAR":1.0402e-5,"MEAN_MOTION_DOT":7.5e-7,"MEAN_MOTION_DDOT":0},{"OBJECT_NAME":"STARLINK-4384","OBJECT_ID":"2022-084AF","EPOCH":"2026-03-03T18:08:42.693216","MEAN_MOTION":15.05646959,"ECCENTRICITY":7.16e-5,"INCLINATION":97.603,"RA_OF_ASC_NODE":125.4357,"ARG_OF_PERICENTER":116.6499,"MEAN_ANOMALY":243.4801,"EPHEMERIS_TYPE":0,"CLASSIFICATION_TYPE":"U","NORAD_CAT_ID":53218,"ELEMENT_SET_NO":999,"REV_AT_EPOCH":19901,"BSTAR":1.0768e-5,"MEAN_MOTION_DOT":9.5e-7,"MEAN_MOTION_DDOT":0},{"OBJECT_NAME":"STARLINK-4373","OBJECT_ID":"2022-084AG","EPOCH":"2026-03-03T17:12:52.312896","MEAN_MOTION":15.05650301,"ECCENTRICITY":0.0001298,"INCLINATION":97.6026,"RA_OF_ASC_NODE":125.3084,"ARG_OF_PERICENTER":172.727,"MEAN_ANOMALY":187.3975,"EPHEMERIS_TYPE":0,"CLASSIFICATION_TYPE":"U","NORAD_CAT_ID":53219,"ELEMENT_SET_NO":999,"REV_AT_EPOCH":19848,"BSTAR":3.0702e-5,"MEAN_MOTION_DOT":3.82e-6,"MEAN_MOTION_DDOT":0},{"OBJECT_NAME":"STARLINK-4363","OBJECT_ID":"2022-084AH","EPOCH":"2026-03-03T14:33:18.865440","MEAN_MOTION":15.01265588,"ECCENTRICITY":0.0002301,"INCLINATION":97.6028,"RA_OF_ASC_NODE":124.2433,"ARG_OF_PERICENTER":171.0131,"MEAN_ANOMALY":189.1135,"EPHEMERIS_TYPE":0,"CLASSIFICATION_TYPE":"U","NORAD_CAT_ID":53220,"ELEMENT_SET_NO":999,"REV_AT_EPOCH":19892,"BSTAR":0.00012133,"MEAN_MOTION_DOT":1.501e-5,"MEAN_MOTION_DDOT":0},{"OBJECT_NAME":"STARLINK-4377","OBJECT_ID":"2022-084AJ","EPOCH":"2026-03-03T17:34:35.387328","MEAN_MOTION":15.01270235,"ECCENTRICITY":0.0002167,"INCLINATION":97.6032,"RA_OF_ASC_NODE":124.3667,"ARG_OF_PERICENTER":144.1607,"MEAN_ANOMALY":215.9763,"EPHEMERIS_TYPE":0,"CLASSIFICATION_TYPE":"U","NORAD_CAT_ID":53221,"ELEMENT_SET_NO":999,"REV_AT_EPOCH":19842,"BSTAR":-1.2505e-5,"MEAN_MOTION_DOT":-2.19e-6,"MEAN_MOTION_DDOT":0},{"OBJECT_NAME":"STARLINK-4356","OBJECT_ID":"2022-084AM","EPOCH":"2026-03-03T16:03:56.520288","MEAN_MOTION":15.01262226,"ECCENTRICITY":0.0003455,"INCLINATION":97.6024,"RA_OF_ASC_NODE":124.3053,"ARG_OF_PERICENTER":158.2164,"MEAN_ANOMALY":201.9208,"EPHEMERIS_TYPE":0,"CLASSIFICATION_TYPE":"U","NORAD_CAT_ID":53224,"ELEMENT_SET_NO":999,"REV_AT_EPOCH":19841,"BSTAR":1.7224e-5,"MEAN_MOTION_DOT":1.63e-6,"MEAN_MOTION_DDOT":0},{"OBJECT_NAME":"STARLINK-4358","OBJECT_ID":"2022-084AN","EPOCH":"2026-03-03T17:16:51.628800","MEAN_MOTION":15.05647489,"ECCENTRICITY":6.96e-5,"INCLINATION":97.6027,"RA_OF_ASC_NODE":125.2878,"ARG_OF_PERICENTER":152.0147,"MEAN_ANOMALY":208.1117,"EPHEMERIS_TYPE":0,"CLASSIFICATION_TYPE":"U","NORAD_CAT_ID":53225,"ELEMENT_SET_NO":999,"REV_AT_EPOCH":19848,"BSTAR":5.4571e-5,"MEAN_MOTION_DOT":7.27e-6,"MEAN_MOTION_DDOT":0},{"OBJECT_NAME":"STARLINK-4359","OBJECT_ID":"2022-084AP","EPOCH":"2026-03-03T17:23:55.146048","MEAN_MOTION":15.01262248,"ECCENTRICITY":8.58e-5,"INCLINATION":97.6044,"RA_OF_ASC_NODE":124.3762,"ARG_OF_PERICENTER":190.539,"MEAN_ANOMALY":169.5816,"EPHEMERIS_TYPE":0,"CLASSIFICATION_TYPE":"U","NORAD_CAT_ID":53226,"ELEMENT_SET_NO":999,"REV_AT_EPOCH":19842,"BSTAR":7.137e-5,"MEAN_MOTION_DOT":8.59e-6,"MEAN_MOTION_DDOT":0},{"OBJECT_NAME":"STARLINK-4366","OBJECT_ID":"2022-084AQ","EPOCH":"2026-03-03T16:48:57.120768","MEAN_MOTION":15.05641501,"ECCENTRICITY":0.0001722,"INCLINATION":97.6032,"RA_OF_ASC_NODE":125.2879,"ARG_OF_PERICENTER":91.8543,"MEAN_ANOMALY":268.2881,"EPHEMERIS_TYPE":0,"CLASSIFICATION_TYPE":"U","NORAD_CAT_ID":53227,"ELEMENT_SET_NO":999,"REV_AT_EPOCH":19848,"BSTAR":-5.8006e-5,"MEAN_MOTION_DOT":-8.97e-6,"MEAN_MOTION_DDOT":0},{"OBJECT_NAME":"STARLINK-4365","OBJECT_ID":"2022-084AR","EPOCH":"2026-03-03T17:29:15.587232","MEAN_MOTION":15.01271747,"ECCENTRICITY":5.35e-5,"INCLINATION":97.6032,"RA_OF_ASC_NODE":124.364,"ARG_OF_PERICENTER":155.0378,"MEAN_ANOMALY":205.0873,"EPHEMERIS_TYPE":0,"CLASSIFICATION_TYPE":"U","NORAD_CAT_ID":53228,"ELEMENT_SET_NO":999,"REV_AT_EPOCH":19842,"BSTAR":3.9528e-5,"MEAN_MOTION_DOT":4.5e-6,"MEAN_MOTION_DDOT":0},{"OBJECT_NAME":"STARLINK-4367","OBJECT_ID":"2022-084AS","EPOCH":"2026-03-03T16:56:55.646304","MEAN_MOTION":15.05647264,"ECCENTRICITY":0.0001183,"INCLINATION":97.6035,"RA_OF_ASC_NODE":125.2981,"ARG_OF_PERICENTER":97.431,"MEAN_ANOMALY":262.7051,"EPHEMERIS_TYPE":0,"CLASSIFICATION_TYPE":"U","NORAD_CAT_ID":53229,"ELEMENT_SET_NO":999,"REV_AT_EPOCH":19848,"BSTAR":4.6303e-5,"MEAN_MOTION_DOT":6.07e-6,"MEAN_MOTION_DDOT":0}]
