STARLINK-4423           
1 53209U 22084W   26062.75298293  .00000792  00000+0  66209-4 0  9990
2 53209  97.6022 124.3899 0001393  93.8425 266.2959 15.01255805198425
STARLINK-4427           
1 53210U 22084X   26062.75828439 -.00000457  00000+0 -31045-4 0  9993
2 53210  97.6022 124.3960 0001918  92.5516 267.5927 15.01257189198961
STARLINK-4416           
1 53212U 22084Z   26062.72835458 -.00003376  00000+0 -22987-3 0  9998
2 53212  97.6035 125.3368 0000651 153.2972 206.8288 15.05654969198477
STARLINK-4414           
1 53213U 22084AA  26062.67680441  .00000243  00000+0  23496-4 0  9998
2 53213  97.6025 124.3125 0002615 200.2408 159.8713 15.01260882198930
STARLINK-4353           
1 53214U 22084AB  26062.75086601  .00000020  00000+0  61273-5 0  9995
2 53214  97.6023 124.3862 0001365  91.9820 268.1561 15.01264781198422
STARLINK-4335           
1 53215U 22084AC  26062.71173870  .00000399  00000+0  31880-4 0  9996
2 53215  97.6030 125.3329 0000555 142.3994 217.7272 15.05647197199007
STARLINK-4376           
1 53216U 22084AD  26062.74716093  .00000075  00000+0  10402-4 0  9998
2 53216  97.6027 124.3818 0000933 179.8988 180.2237 15.01263482198421
STARLINK-4384           
1 53218U 22084AF  26062.75604969  .00000095  00000+0  10768-4 0  9996
2 53218  97.6030 125.4357 0000716 116.6499 243.4801 15.05646959199015
STARLINK-4373           
1 53219U 22084AG  26062.71727214  .00000382  00000+0  30702-4 0  9991
2 53219  97.6026 125.3084 0001298 172.7270 187.3975 15.05650301198487
STARLINK-4363           
1 53220U 22084AH  26062.60646835  .00001501  00000+0  12133-3 0  9991
2 53220  97.6028 124.2433 0002301 171.0131 189.1135 15.01265588198923
STARLINK-4377           
1 53221U 22084AJ  26062.73235402 -.00000219  00000+0 -12505-4 0  9991
2 53221  97.6032 124.3667 0002167 144.1607 215.9763 15.01270235198423
STARLINK-4356           
1 53224U 22084AM  26062.66940417  .00000163  00000+0  17224-4 0  9994
2 53224  97.6024 124.3053 0003455 158.2164 201.9208 15.01262226198410
STARLINK-4358           
1 53225U 22084AN  26062.72004200  .00000727  00000+0  54571-4 0  9995
2 53225  97.6027 125.2878 0000696 152.0147 208.1117 15.05647489198483
STARLINK-4359           
1 53226U 22084AP  26062.72494382  .00000859  00000+0  71370-4 0  9992
2 53226  97.6044 124.3762 0000858 190.5390 169.5816 15.01262248198424
STARLINK-4366           
1 53227U 22084AQ  26062.70066112 -.00000897  00000+0 -58006-4 0  9992
2 53227  97.6032 125.2879 0001722  91.8543 268.2881 15.05641501198487
STARLINK-4365           
1 53228U 22084AR  26062.72865263  .00000450  00000+0  39528-4 0  9990
2 53228  97.6032 124.3640 0000535 155.0378 205.0873 15.01271747198425
STARLINK-4367           
1 53229U 22084AS  26062.70619961  .00000607  00000+0  46303-4 0  9994
2 53229  97.6035 125.2981 0001183  97.4310 262.7051 15.05647264198481
